CCSDS_OMM_VERS = 2.0
CREATION_DATE  = 
ORIGINATOR     = 

OBJECT_NAME    = IDEFIX & ARIANE 42P R/B
OBJECT_ID      = 2002-021B
CENTER_NAME    = EARTH
REF_FRAME      = TEME
TIME_SYSTEM    = UTC
MEAN_ELEMENT_THEORY = SGP/SGP4

EPOCH          = 2026-02-03T05:38:05.997696
MEAN_MOTION    = 14.30999791
ECCENTRICITY   = .00107796
INCLINATION    = 98.5837
RA_OF_ASC_NODE = 333.2606
ARG_OF_PERICENTER = 291.9952
MEAN_ANOMALY   = 68.0086

EPHEMERIS_TYPE = 0
CLASSIFICATION_TYPE = U
NORAD_CAT_ID   = 27422
ELEMENT_SET_NO = 999
REV_AT_EPOCH   = 23909
BSTAR          = .14451647E-3
MEAN_MOTION_DOT = .337E-5
MEAN_MOTION_DDOT = 0

CCSDS_OMM_VERS = 2.0
CREATION_DATE  = 
ORIGINATOR     = 

OBJECT_NAME    = AQUA
OBJECT_ID      = 2002-022A
CENTER_NAME    = EARTH
REF_FRAME      = TEME
TIME_SYSTEM    = UTC
MEAN_ELEMENT_THEORY = SGP/SGP4

EPOCH          = 2026-02-03T06:22:51.410784
MEAN_MOTION    = 14.61887275
ECCENTRICITY   = .0001683
INCLINATION    = 98.4114
RA_OF_ASC_NODE = 1.0209
ARG_OF_PERICENTER = 57.9140
MEAN_ANOMALY   = 46.1853

EPHEMERIS_TYPE = 0
CLASSIFICATION_TYPE = U
NORAD_CAT_ID   = 27424
ELEMENT_SET_NO = 999
REV_AT_EPOCH   = 26370
BSTAR          = .24721996E-3
MEAN_MOTION_DOT = .1187E-4
MEAN_MOTION_DDOT = 0

CCSDS_OMM_VERS = 2.0
CREATION_DATE  = 
ORIGINATOR     = 

OBJECT_NAME    = CZ-4B R/B
OBJECT_ID      = 2002-024C
CENTER_NAME    = EARTH
REF_FRAME      = TEME
TIME_SYSTEM    = UTC
MEAN_ELEMENT_THEORY = SGP/SGP4

EPOCH          = 2026-02-03T03:05:51.819072
MEAN_MOTION    = 14.14541122
ECCENTRICITY   = .00510551
INCLINATION    = 98.8912
RA_OF_ASC_NODE = 87.6973
ARG_OF_PERICENTER = 120.7116
MEAN_ANOMALY   = 294.3556

EPHEMERIS_TYPE = 0
CLASSIFICATION_TYPE = U
NORAD_CAT_ID   = 27432
ELEMENT_SET_NO = 999
REV_AT_EPOCH   = 22435
BSTAR          = .58413199E-4
MEAN_MOTION_DOT = .69E-6
MEAN_MOTION_DDOT = 0

CCSDS_OMM_VERS = 2.0
CREATION_DATE  = 
ORIGINATOR     = 

OBJECT_NAME    = MIDORI II (ADEOS-II)
OBJECT_ID      = 2002-056A
CENTER_NAME    = EARTH
REF_FRAME      = TEME
TIME_SYSTEM    = UTC
MEAN_ELEMENT_THEORY = SGP/SGP4

EPOCH          = 2026-02-02T20:54:14.082048
MEAN_MOTION    = 14.29256788
ECCENTRICITY   = .00021197
INCLINATION    = 98.7709
RA_OF_ASC_NODE = 352.1223
ARG_OF_PERICENTER = 91.7263
MEAN_ANOMALY   = 268.4161

EPHEMERIS_TYPE = 0
CLASSIFICATION_TYPE = U
NORAD_CAT_ID   = 27597
ELEMENT_SET_NO = 999
REV_AT_EPOCH   = 20532
BSTAR          = .15401076E-3
MEAN_MOTION_DOT = .346E-5
MEAN_MOTION_DDOT = 0

CCSDS_OMM_VERS = 2.0
CREATION_DATE  = 
ORIGINATOR     = 

OBJECT_NAME    = H-2A R/B
OBJECT_ID      = 2002-056E
CENTER_NAME    = EARTH
REF_FRAME      = TEME
TIME_SYSTEM    = UTC
MEAN_ELEMENT_THEORY = SGP/SGP4

EPOCH          = 2026-02-02T22:46:45.460128
MEAN_MOTION    = 14.33734100
ECCENTRICITY   = .00689982
INCLINATION    = 98.3140
RA_OF_ASC_NODE = 355.6510
ARG_OF_PERICENTER = 265.1627
MEAN_ANOMALY   = 135.3453

EPHEMERIS_TYPE = 0
CLASSIFICATION_TYPE = U
NORAD_CAT_ID   = 27601
ELEMENT_SET_NO = 999
REV_AT_EPOCH   = 20913
BSTAR          = .13646121E-3
MEAN_MOTION_DOT = .347E-5
MEAN_MOTION_DDOT = 0

CCSDS_OMM_VERS = 2.0
CREATION_DATE  = 
ORIGINATOR     = 

OBJECT_NAME    = CZ-4B R/B
OBJECT_ID      = 2003-049C
CENTER_NAME    = EARTH
REF_FRAME      = TEME
TIME_SYSTEM    = UTC
MEAN_ELEMENT_THEORY = SGP/SGP4

EPOCH          = 2026-02-02T23:58:58.832256
MEAN_MOTION    = 14.54979303
ECCENTRICITY   = .0047793
INCLINATION    = 98.6839
RA_OF_ASC_NODE = 27.5541
ARG_OF_PERICENTER = 338.9486
MEAN_ANOMALY   = 20.9742

EPHEMERIS_TYPE = 0
CLASSIFICATION_TYPE = U
NORAD_CAT_ID   = 28059
ELEMENT_SET_NO = 999
REV_AT_EPOCH   = 18155
BSTAR          = .13609845E-3
MEAN_MOTION_DOT = .543E-5
MEAN_MOTION_DDOT = 0

CCSDS_OMM_VERS = 2.0
CREATION_DATE  = 
ORIGINATOR     = 

OBJECT_NAME    = CZ-2C R/B
OBJECT_ID      = 2004-012C
CENTER_NAME    = EARTH
REF_FRAME      = TEME
TIME_SYSTEM    = UTC
MEAN_ELEMENT_THEORY = SGP/SGP4

EPOCH          = 2026-02-03T03:41:10.459392
MEAN_MOTION    = 15.60580643
ECCENTRICITY   = .0016458
INCLINATION    = 97.7317
RA_OF_ASC_NODE = 96.2690
ARG_OF_PERICENTER = 79.5004
MEAN_ANOMALY   = 280.8106

EPHEMERIS_TYPE = 0
CLASSIFICATION_TYPE = U
NORAD_CAT_ID   = 28222
ELEMENT_SET_NO = 999
REV_AT_EPOCH   = 19888
BSTAR          = .55597895E-3
MEAN_MOTION_DOT = .46276E-3
MEAN_MOTION_DDOT = 0

CCSDS_OMM_VERS = 2.0
CREATION_DATE  = 
ORIGINATOR     = 

OBJECT_NAME    = SL-16 R/B
OBJECT_ID      = 2004-021B
CENTER_NAME    = EARTH
REF_FRAME      = TEME
TIME_SYSTEM    = UTC
MEAN_ELEMENT_THEORY = SGP/SGP4

EPOCH          = 2026-02-03T03:52:22.228896
MEAN_MOTION    = 14.14589266
ECCENTRICITY   = .00027783
INCLINATION    = 71.0009
RA_OF_ASC_NODE = 304.9557
ARG_OF_PERICENTER = 96.1148
MEAN_ANOMALY   = 264.0291

EPHEMERIS_TYPE = 0
CLASSIFICATION_TYPE = U
NORAD_CAT_ID   = 28353
ELEMENT_SET_NO = 999
REV_AT_EPOCH   = 11795
BSTAR          = -.26224476E-4
MEAN_MOTION_DOT = -.98E-6
MEAN_MOTION_DDOT = 0

CCSDS_OMM_VERS = 2.0
CREATION_DATE  = 
ORIGINATOR     = 

OBJECT_NAME    = CZ-4B R/B
OBJECT_ID      = 2004-035C
CENTER_NAME    = EARTH
REF_FRAME      = TEME
TIME_SYSTEM    = UTC
MEAN_ELEMENT_THEORY = SGP/SGP4

EPOCH          = 2026-02-03T02:05:00.045312
MEAN_MOTION    = 15.28407078
ECCENTRICITY   = .00343327
INCLINATION    = 97.3540
RA_OF_ASC_NODE = 68.7524
ARG_OF_PERICENTER = 91.6332
MEAN_ANOMALY   = 268.8841

EPHEMERIS_TYPE = 0
CLASSIFICATION_TYPE = U
NORAD_CAT_ID   = 28415
ELEMENT_SET_NO = 999
REV_AT_EPOCH   = 17462
BSTAR          = .30509768E-3
MEAN_MOTION_DOT = .8512E-4
MEAN_MOTION_DDOT = 0

CCSDS_OMM_VERS = 2.0
CREATION_DATE  = 
ORIGINATOR     = 

OBJECT_NAME    = CZ-2C R/B
OBJECT_ID      = 2004-046B
CENTER_NAME    = EARTH
REF_FRAME      = TEME
TIME_SYSTEM    = UTC
MEAN_ELEMENT_THEORY = SGP/SGP4

EPOCH          = 2026-02-03T06:25:10.634016
MEAN_MOTION    = 14.26978945
ECCENTRICITY   = .0138171
INCLINATION    = 98.1998
RA_OF_ASC_NODE = 311.3886
ARG_OF_PERICENTER = 256.6138
MEAN_ANOMALY   = 101.9610

EPHEMERIS_TYPE = 0
CLASSIFICATION_TYPE = U
NORAD_CAT_ID   = 28480
ELEMENT_SET_NO = 999
REV_AT_EPOCH   = 10359
BSTAR          = .80614662E-4
MEAN_MOTION_DOT = .174E-5
MEAN_MOTION_DDOT = 0

CCSDS_OMM_VERS = 2.0
CREATION_DATE  = 
ORIGINATOR     = 

OBJECT_NAME    = ARIANE 5 R/B
OBJECT_ID      = 2004-049H
CENTER_NAME    = EARTH
REF_FRAME      = TEME
TIME_SYSTEM    = UTC
MEAN_ELEMENT_THEORY = SGP/SGP4

EPOCH          = 2026-02-03T04:57:27.059616
MEAN_MOTION    = 14.85189877
ECCENTRICITY   = .00854869
INCLINATION    = 98.2571
RA_OF_ASC_NODE = 201.3871
ARG_OF_PERICENTER = 102.6979
MEAN_ANOMALY   = 258.3808

EPHEMERIS_TYPE = 0
CLASSIFICATION_TYPE = U
NORAD_CAT_ID   = 28499
ELEMENT_SET_NO = 999
REV_AT_EPOCH   = 14067
BSTAR          = .13850601E-3
MEAN_MOTION_DOT = .1203E-4
MEAN_MOTION_DDOT = 0

CCSDS_OMM_VERS = 2.0
CREATION_DATE  = 
ORIGINATOR     = 

OBJECT_NAME    = CZ-2D R/B
OBJECT_ID      = 2005-024B
CENTER_NAME    = EARTH
REF_FRAME      = TEME
TIME_SYSTEM    = UTC
MEAN_ELEMENT_THEORY = SGP/SGP4

EPOCH          = 2026-02-02T12:36:04.932576
MEAN_MOTION    = 15.57059794
ECCENTRICITY   = .00068677
INCLINATION    = 97.3611
RA_OF_ASC_NODE = 47.4658
ARG_OF_PERICENTER = 131.7874
MEAN_ANOMALY   = 228.3969

EPHEMERIS_TYPE = 0
CLASSIFICATION_TYPE = U
NORAD_CAT_ID   = 28738
ELEMENT_SET_NO = 999
REV_AT_EPOCH   = 13430
BSTAR          = .55447219E-3
MEAN_MOTION_DOT = .40174E-3
MEAN_MOTION_DDOT = 0

