IDEFIX & ARIANE 42P R/B 
1 27422U 02021B   26034.23479164  .00000337  00000+0  14452-3 0  9994
2 27422  98.5837 333.2606 0010779 291.9952  68.0086 14.30999791239096
AQUA                    
1 27424U 02022A   26034.26587281  .00001187  00000+0  24722-3 0  9995
2 27424  98.4114   1.0209 0001683  57.9140  46.1853 14.61887275263708
CZ-4B R/B               
1 27432U 02024C   26034.12907198  .00000069  00000+0  58413-4 0  9997
2 27432  98.8912  87.6973 0051055 120.7116 294.3556 14.14541122224356
MIDORI II (ADEOS-II)    
1 27597U 02056A   26033.87099632  .00000346  00000+0  15401-3 0  9997
2 27597  98.7709 352.1223 0002119  91.7263 268.4161 14.29256788205323
H-2A R/B                
1 27601U 02056E   26033.94913727  .00000347  00000+0  13646-3 0  9991
2 27601  98.3140 355.6510 0068998 265.1627 135.3453 14.33734100209132
CZ-4B R/B               
1 28059U 03049C   26033.99929204  .00000543  00000+0  13610-3 0  9993
2 28059  98.6839  27.5541 0047793 338.9486  20.9742 14.54979303181553
CZ-2C R/B               
1 28222U 04012C   26034.15359328  .00046276  00000+0  55598-3 0  9993
2 28222  97.7317  96.2690 0016458  79.5004 280.8106 15.60580643198880
SL-16 R/B               
1 28353U 04021B   26034.16136839 -.00000098  00000+0 -26224-4 0  9998
2 28353  71.0009 304.9557 0002778  96.1148 264.0291 14.14589266117959
CZ-4B R/B               
1 28415U 04035C   26034.08680608  .00008512  00000+0  30510-3 0  9990
2 28415  97.3540  68.7524 0034332  91.6332 268.8841 15.28407078174620
CZ-2C R/B               
1 28480U 04046B   26034.26748419  .00000174  00000+0  80615-4 0  9997
2 28480  98.1998 311.3886 0138171 256.6138 101.9610 14.26978945103591
ARIANE 5 R/B            
1 28499U 04049H   26034.20656319  .00001203  00000+0  13851-3 0  9992
2 28499  98.2571 201.3871 0085486 102.6979 258.3808 14.85189877140673
CZ-2D R/B               
1 28738U 05024B   26033.52505709  .00040174  00000+0  55447-3 0  9999
2 28738  97.3611  47.4658 0006867 131.7874 228.3969 15.57059794134301
